{
  "norad_id": 49755,
  "name": "STARLINK-3210",
  "history": [
    {
      "epoch": "2026-03-28T08:21:44.448768Z",
      "apogee_km": 540.739650774698,
      "perigee_km": 538.7762138350117,
      "latitude_deg": 1.6448618888921155e-05,
      "longitude_deg": 114.20034393530783,
      "height_km": 540.5487963232786,
      "semi_major_axis_km": 6917.894932304855,
      "eccentricity": 0.00014191,
      "inclination_deg": 53.2179,
      "raan_deg": 65.4057,
      "arg_perigee_deg": 83.8706,
      "mean_anomaly_deg": 276.2448,
      "mean_motion_rev_day": 15.08835242
    },
    {
      "epoch": "2026-03-29T05:01:44.660352Z",
      "apogee_km": 540.7033115087361,
      "perigee_km": 538.770457545399,
      "latitude_deg": -5.141614136253346e-06,
      "longitude_deg": 159.48579388055867,
      "height_km": 540.4760148246324,
      "semi_major_axis_km": 6917.873884527067,
      "eccentricity": 0.0001397,
      "inclination_deg": 53.2176,
      "raan_deg": 61.5408,
      "arg_perigee_deg": 80.6761,
      "mean_anomaly_deg": 279.4389,
      "mean_motion_rev_day": 15.08842128
    },
    {
      "epoch": "2026-03-30T04:52:32.132352Z",
      "apogee_km": 540.750060607359,
      "perigee_km": 538.7564629917124,
      "latitude_deg": 3.999238481426458e-05,
      "longitude_deg": 156.34898629716128,
      "height_km": 540.5056912123069,
      "semi_major_axis_km": 6917.890261799535,
      "eccentricity": 0.00014409,
      "inclination_deg": 53.2182,
      "raan_deg": 57.0811,
      "arg_perigee_deg": 81.7365,
      "mean_anomaly_deg": 278.3791,
      "mean_motion_rev_day": 15.0883677
    },
    {
      "epoch": "2026-03-30T14:24:51.240384Z",
      "apogee_km": 540.7346367112023,
      "perigee_km": 538.7804698577893,
      "latitude_deg": -6.016649654415394e-07,
      "longitude_deg": 11.093401703845055,
      "height_km": 540.502611903814,
      "semi_major_axis_km": 6917.8945532844955,
      "eccentricity": 0.00014124,
      "inclination_deg": 53.2176,
      "raan_deg": 55.2969,
      "arg_perigee_deg": 81.1323,
      "mean_anomaly_deg": 278.9829,
      "mean_motion_rev_day": 15.08835366
    }
  ]
}